CCSDS_OMM_VERS,COMMENT,CREATION_DATE,ORIGINATOR,OBJECT_NAME,OBJECT_ID,CENTER_NAME,REF_FRAME,TIME_SYSTEM,MEAN_ELEMENT_THEORY,EPOCH,MEAN_MOTION,ECCENTRICITY,INCLINATION,RA_OF_ASC_NODE,ARG_OF_PERICENTER,MEAN_ANOMALY,EPHEMERIS_TYPE,CLASSIFICATION_TYPE,NORAD_CAT_ID,ELEMENT_SET_NO,REV_AT_EPOCH,BSTAR,MEAN_MOTION_DOT,MEAN_MOTION_DDOT,SEMIMAJOR_AXIS,PERIOD,APOAPSIS,PERIAPSIS,OBJECT_TYPE,RCS_SIZE,COUNTRY_CODE,LAUNCH_DATE,SITE,DECAY_DATE,FILE,GP_ID,TLE_LINE0,TLE_LINE1,TLE_LINE2
2,GENERATED VIA SPACE-TRACK.ORG API,2006-07-14T08:35:46,18 SPCS,BREEZE-M R/B,2000-029B,EARTH,TEME,UTC,SGP4,2006-07-13T12:00:32.932223,1.00341003,0.0261573,3.8072,74.4544,141.8426,219.8949,0,U,26373,999,2239,0.0001,-2.65e-06,0,42145.365,1435.106,36869.639,34664.821,ROCKET BODY,,CIS,2000-06-06,TTMTR,,287529,58066095,0 BREEZE-M R/B,1 26373U 00029B   06194.50038116 -.00000265  00000-0  10000-3 0  9994,2 26373 003.8072 074.4544 0261573 141.8426 219.8949 01.00341003 22391
2,GENERATED VIA SPACE-TRACK.ORG API,2006-07-18T10:11:16,18 SPCS,BREEZE-M R/B,2000-029B,EARTH,TEME,UTC,SGP4,2006-07-14T11:55:44.427936,1.00340704,0.0261587,3.8095,74.447,141.8668,219.9062,0,U,26373,999,2240,0.0001,-2.68e-06,0,42145.449,1435.11,36869.784,34664.844,ROCKET BODY,,CIS,2000-06-06,TTMTR,,289019,58094053,0 BREEZE-M R/B,1 26373U 00029B   06195.49704199 -.00000268 +00000-0 +10000-3 0  9997,2 26373 003.8095 074.4470 0261587 141.8668 219.9062 01.00340704022403
2,GENERATED VIA SPACE-TRACK.ORG API,2006-07-16T16:27:31,18 SPCS,BREEZE-M R/B,2000-029B,EARTH,TEME,UTC,SGP4,2006-07-15T11:50:51.672768,1.00340403,0.0261331,3.8115,74.4413,141.9943,219.7982,0,U,26373,999,2241,0.0001,-2.71e-06,0,42145.533,1435.114,36868.792,34666.005,ROCKET BODY,,CIS,2000-06-06,TTMTR,,288317,58078375,0 BREEZE-M R/B,1 26373U 00029B   06196.49365362 -.00000271  00000-0  10000-3 0  9997,2 26373 003.8115 074.4413 0261331 141.9943 219.7982 01.00340403 22413
2,GENERATED VIA SPACE-TRACK.ORG API,2006-07-21T08:32:00,18 SPCS,BREEZE-M R/B,2000-029B,EARTH,TEME,UTC,SGP4,2006-07-20T11:25:49.727999,1.00338943,0.0260701,3.8233,74.4013,142.2696,219.4425,0,U,26373,999,2246,0.0001,-2.94e-06,0,42145.942,1435.135,36866.556,34669.058,ROCKET BODY,SMALL,CIS,2000-06-06,TTMTR,,290029,58144851,0 BREEZE-M R/B,1 26373U 00029B   06201.47627000 -.00000294  00000-0  10000-3 0  9997,2 26373 003.8233 074.4013 0260701 142.2696 219.4425 01.00338943 22469
2,GENERATED VIA SPACE-TRACK.ORG API,2006-07-22T16:26:53,18 SPCS,BREEZE-M R/B,2000-029B,EARTH,TEME,UTC,SGP4,2006-07-21T11:20:49.390368,1.00338648,0.0261103,3.8259,74.3949,142.22,219.4621,0,U,26373,999,2247,0.0001,-2.99e-06,0,42146.025,1435.139,36868.335,34667.444,ROCKET BODY,SMALL,CIS,2000-06-06,TTMTR,,290559,58157939,0 BREEZE-M R/B,1 26373U 00029B   06202.47279387 -.00000299  00000-0  10000-3 0  9994,2 26373 003.8259 074.3949 0261103 142.2200 219.4621 01.00338648 22473
2,GENERATED VIA SPACE-TRACK.ORG API,2006-07-23T08:33:23,18 SPCS,BREEZE-M R/B,2000-029B,EARTH,TEME,UTC,SGP4,2006-07-22T11:16:00.929279,1.0033814,0.0269602,3.8341,74.4658,141.4157,220.1119,0,U,26373,999,2248,0.0001,-3.02e-06,0,42146.167,1435.147,36904.301,34631.763,ROCKET BODY,SMALL,CIS,2000-06-06,TTMTR,,290751,58161215,0 BREEZE-M R/B,1 26373U 00029B   06203.46945520 -.00000302  00000-0  10000-3 0  9998,2 26373 003.8341 074.4658 0269602 141.4157 220.1119 01.00338140 22486
2,GENERATED VIA SPACE-TRACK.ORG API,2006-07-26T08:29:37,18 SPCS,BREEZE-M R/B,2000-029B,EARTH,TEME,UTC,SGP4,2006-07-25T11:02:48.528095,1.00337063,0.0260651,3.8363,74.3962,142.4462,219.6083,0,U,26373,999,2251,0.0001,-2.96e-06,0,42146.469,1435.162,36866.885,34669.782,ROCKET BODY,SMALL,CIS,2000-06-06,TTMTR,,291794,58200290,0 BREEZE-M R/B,1 26373U 00029B   06206.46028389 -.00000296  00000-0  10000-3 0  9998,2 26373 003.8363 074.3962 0260651 142.4462 219.6083 01.00337063 22512
2,GENERATED VIA SPACE-TRACK.ORG API,2006-07-28T08:34:38,18 SPCS,BREEZE-M R/B,2000-029B,EARTH,TEME,UTC,SGP4,2006-07-27T10:52:19.225056,1.00336997,0.0261454,3.8416,74.3458,142.2603,219.6567,0,U,26373,999,2253,0.0001,-2.84e-06,0,42146.487,1435.163,36870.289,34666.415,ROCKET BODY,SMALL,CIS,2000-06-06,TTMTR,,292437,58222532,0 BREEZE-M R/B,1 26373U 00029B   06208.45300029 -.00000284  00000-0  10000-3 0  9990,2 26373 003.8416 074.3458 0261454 142.2603 219.6567 01.00336997 22532
2,GENERATED VIA SPACE-TRACK.ORG API,2006-08-06T08:32:26,18 SPCS,BREEZE-M R/B,2000-029B,EARTH,TEME,UTC,SGP4,2006-08-05T10:08:15.018720,1.00334686,0.0261493,3.8634,74.2742,142.5048,219.3795,0,U,26373,999,2262,0.0001,-2.31e-06,0,42147.134,1435.196,36871.117,34666.881,ROCKET BODY,SMALL,CIS,2000-06-06,TTMTR,,295490,58318548,0 BREEZE-M R/B,1 26373U 00029B   06217.42239605 -.00000231  00000-0  10000-3 0  9990,2 26373 003.8634 074.2742 0261493 142.5048 219.3795 01.00334686 22621
2,GENERATED VIA SPACE-TRACK.ORG API,2006-08-09T09:10:28,18 SPCS,BREEZE-M R/B,2000-029B,EARTH,TEME,UTC,SGP4,2006-08-07T09:58:42.823487,1.00334195,0.0261529,3.8682,74.2578,142.571,219.3607,0,U,26373,999,2264,0.0001,-2.33e-06,0,42147.272,1435.203,36871.41,34666.863,ROCKET BODY,SMALL,CIS,2000-06-06,TTMTR,,296564,58350886,0 BREEZE-M R/B,1 26373U 00029B   06219.41577342 -.00000233 +00000-0 +10000-3 0  9996,2 26373 003.8682 074.2578 0261529 142.5710 219.3607 01.00334195022646
2,GENERATED VIA SPACE-TRACK.ORG API,2006-08-11T00:26:07,18 SPCS,BREEZE-M R/B,2000-029B,EARTH,TEME,UTC,SGP4,2006-08-10T09:44:37.206815,1.00333467,0.0261355,3.8752,74.2357,142.7393,219.309,0,U,26373,999,2267,0.0001,-2.42e-06,0,42147.476,1435.214,36870.886,34667.795,ROCKET BODY,SMALL,CIS,2000-06-06,TTMTR,,297097,58366548,0 BREEZE-M R/B,1 26373U 00029B   06222.40598619 -.00000242  00000-0  10000-3 0  9999,2 26373 003.8752 074.2357 0261355 142.7393 219.3090 01.00333467 22675
2,GENERATED VIA SPACE-TRACK.ORG API,2006-08-11T08:10:24,18 SPCS,BREEZE-M R/B,2000-029B,EARTH,TEME,UTC,SGP4,2006-08-10T09:44:37.206815,1.00333467,0.0261355,3.8752,74.2357,142.7393,219.309,0,U,26373,999,2267,0.0001,-2.42e-06,0,42147.476,1435.214,36870.886,34667.795,ROCKET BODY,SMALL,CIS,2000-06-06,TTMTR,,297179,58372963,0 BREEZE-M R/B,1 26373U 00029B   06222.40598619 -.00000242 +00000-0 +10000-3 0  9999,2 26373 003.8752 074.2357 0261355 142.7393 219.3090 01.00333467022675
2,GENERATED VIA SPACE-TRACK.ORG API,2006-08-14T06:10:22,18 SPCS,BREEZE-M R/B,2000-029B,EARTH,TEME,UTC,SGP4,2006-08-12T09:35:02.045472,1.0033298,0.0261398,3.88,74.2253,142.806,219.2598,0,U,26373,999,2269,0.0001,-2.48e-06,0,42147.612,1435.221,36871.207,34667.747,ROCKET BODY,SMALL,CIS,2000-06-06,TTMTR,,298125,58406273,0 BREEZE-M R/B,1 26373U 00029B   06224.39932923 -.00000248 +00000-0 +10000-3 0  9995,2 26373 003.8800 074.2253 0261398 142.8060 219.2598 01.00332980022696
2,GENERATED VIA SPACE-TRACK.ORG API,2006-08-16T08:34:12,18 SPCS,BREEZE-M R/B,2000-029B,EARTH,TEME,UTC,SGP4,2006-08-15T09:20:19.708799,1.00332282,0.026146,3.8874,74.2023,142.9037,219.1089,0,U,26373,999,2272,0.0001,-2.61e-06,0,42147.807,1435.23,36871.669,34667.676,ROCKET BODY,SMALL,CIS,2000-06-06,TTMTR,,298880,58429479,0 BREEZE-M R/B,1 26373U 00029B   06227.38911700 -.00000261  00000-0  10000-3 0  9992,2 26373 003.8874 074.2023 0261460 142.9037 219.1089 01.00332282 22720
2,GENERATED VIA SPACE-TRACK.ORG API,2006-08-18T06:10:23,18 SPCS,BREEZE-M R/B,2000-029B,EARTH,TEME,UTC,SGP4,2006-08-17T09:10:33.400128,1.00331824,0.0261541,3.8922,74.1875,142.9995,218.9804,0,U,26373,999,2274,0.0001,-2.72e-06,0,42147.936,1435.237,36872.142,34667.459,ROCKET BODY,SMALL,CIS,2000-06-06,TTMTR,,299573,58451357,0 BREEZE-M R/B,1 26373U 00029B   06229.38233102 -.00000272 +00000-0 +10000-3 0  9999,2 26373 003.8922 074.1875 0261541 142.9995 218.9804 01.00331824022746
2,GENERATED VIA SPACE-TRACK.ORG API,2006-08-19T08:30:44,18 SPCS,BREEZE-M R/B,2000-029B,EARTH,TEME,UTC,SGP4,2006-08-18T09:05:45.563711,1.00331603,0.0261655,3.8948,74.1786,142.9942,218.9906,0,U,26373,999,2275,0.0001,-2.75e-06,0,42147.998,1435.24,36872.686,34667.039,ROCKET BODY,SMALL,CIS,2000-06-06,TTMTR,,299937,58458236,0 BREEZE-M R/B,1 26373U 00029B   06230.37899958 -.00000275  00000-0  10000-3 0  9990,2 26373 003.8948 074.1786 0261655 142.9942 218.9906 01.00331603 22752
2,GENERATED VIA SPACE-TRACK.ORG API,2006-08-21T08:10:22,18 SPCS,BREEZE-M R/B,2000-029B,EARTH,TEME,UTC,SGP4,2006-08-19T09:01:01.598015,1.00331383,0.0261817,3.8975,74.1707,142.9902,219.0136,0,U,26373,999,2276,0.0001,-2.77e-06,0,42148.059,1435.243,36873.432,34666.416,ROCKET BODY,SMALL,CIS,2000-06-06,TTMTR,,300660,58485739,0 BREEZE-M R/B,1 26373U 00029B   06231.37571294 -.00000277 +00000-0 +10000-3 0  9993,2 26373 003.8975 074.1707 0261817 142.9902 219.0136 01.00331383022764
2,GENERATED VIA SPACE-TRACK.ORG API,2006-08-23T12:10:46,18 SPCS,BREEZE-M R/B,2000-029B,EARTH,TEME,UTC,SGP4,2006-08-21T08:51:40.529376,1.00330959,0.0261842,3.9024,74.1524,143.0551,219.0203,0,U,26373,999,2278,0.0001,-2.73e-06,0,42148.178,1435.249,36873.659,34666.427,ROCKET BODY,SMALL,CIS,2000-06-06,TTMTR,,301487,58510436,0 BREEZE-M R/B,1 26373U 00029B   06233.36921909 -.00000273 +00000-0 +10000-3 0  9992,2 26373 003.9024 074.1524 0261842 143.0551 219.0203 01.00330959022782
2,GENERATED VIA SPACE-TRACK.ORG API,2006-08-21T16:28:11,18 SPCS,BREEZE-M R/B,2000-029B,EARTH,TEME,UTC,SGP4,2006-08-21T08:51:40.565663,1.00330959,0.0261844,3.9024,74.153,143.0535,219.0215,0,U,26373,999,2278,0.0001,-2.73e-06,0,42148.178,1435.249,36873.668,34666.418,ROCKET BODY,SMALL,CIS,2000-06-06,TTMTR,,300824,58488881,0 BREEZE-M R/B,1 26373U 00029B   06233.36921951 -.00000273  00000-0  10000-3 0  9999,2 26373 003.9024 074.1530 0261844 143.0535 219.0215 01.00330959 22786
2,GENERATED VIA SPACE-TRACK.ORG API,2006-08-24T07:10:23,18 SPCS,BREEZE-M R/B,2000-029B,EARTH,TEME,UTC,SGP4,2006-08-22T08:47:00.485375,1.00330752,0.0261895,3.9051,74.1463,143.0647,219.0438,0,U,26373,999,2279,0.0001,-2.68e-06,0,42148.236,1435.252,36873.942,34666.26,ROCKET BODY,SMALL,CIS,2000-06-06,TTMTR,,301750,58520750,0 BREEZE-M R/B,1 26373U 00029B   06234.36597784 -.00000268 +00000-0 +10000-3 0  9997,2 26373 003.9051 074.1463 0261895 143.0647 219.0438 01.00330752022790
